{
  "type": "FeatureCollection",
  "features": [
    {
      "type": "Feature",
      "properties": {
        "norad_id": 36585,
        "name": "GPS BIIF-1  (PRN 25)",
        "group": "gnss",
        "lat": 6.094573969702675,
        "lon": 31.364083599990142,
        "alt_km": 20278.69518167047,
        "timestamp": "2025-12-20T16:47:36.528218+00:00",
        "meta_object_name": "GPS BIIF-1  (PRN 25)",
        "meta_object_id": "2010-022A",
        "meta_epoch": "2025-12-20T02:58:58.243008",
        "meta_mean_motion": 2.00553637,
        "meta_eccentricity": 0.01264155,
        "meta_inclination": 54.299,
        "meta_ra_of_asc_node": 215.7761,
        "meta_arg_of_pericenter": 65.1663,
        "meta_mean_anomaly": 50.4936,
        "meta_ephemeris_type": 0,
        "meta_classification_type": "U",
        "meta_norad_cat_id": 36585,
        "meta_element_set_no": 999,
        "meta_rev_at_epoch": 11400,
        "meta_bstar": 0,
        "meta_mean_motion_dot": 8e-07,
        "meta_mean_motion_ddot": 0,
        "tle_line1": "1 36585U 10022A   25354.12428522  .00000080  00000+0  00000+0 0  9993",
        "tle_line2": "2 36585  54.2990 215.7761 0126415  65.1663  50.4936  2.00553637114007"
      },
      "geometry": {
        "type": "Point",
        "coordinates": [
          31.364083599990142,
          6.094573969702675
        ]
      }
    },
    {
      "type": "Feature",
      "properties": {
        "norad_id": 36828,
        "name": "BEIDOU-2 IGSO-1 (C06)",
        "group": "gnss",
        "lat": -51.46963474674114,
        "lon": 99.75785049862972,
        "alt_km": 35714.767073385825,
        "timestamp": "2025-12-20T16:47:36.528243+00:00",
        "meta_object_name": "BEIDOU-2 IGSO-1 (C06)",
        "meta_object_id": "2010-036A",
        "meta_epoch": "2025-12-14T21:38:21.623424",
        "meta_mean_motion": 1.00275796,
        "meta_eccentricity": 0.00512569,
        "meta_inclination": 54.2866,
        "meta_ra_of_asc_node": 164.6279,
        "meta_arg_of_pericenter": 215.8888,
        "meta_mean_anomaly": 135.7931,
        "meta_ephemeris_type": 0,
        "meta_classification_type": "U",
        "meta_norad_cat_id": 36828,
        "meta_element_set_no": 999,
        "meta_rev_at_epoch": 5624,
        "meta_bstar": 0,
        "meta_mean_motion_dot": -2.4e-07,
        "meta_mean_motion_ddot": 0,
        "tle_line1": "1 36828U 10036A   25348.90163916 -.00000024  00000+0  00000+0 0  9999",
        "tle_line2": "2 36828  54.2866 164.6279 0051256 215.8888 135.7931  1.00275796 56247"
      },
      "geometry": {
        "type": "Point",
        "coordinates": [
          99.75785049862972,
          -51.46963474674114
        ]
      }
    },
    {
      "type": "Feature",
      "properties": {
        "norad_id": 37210,
        "name": "BEIDOU-2 G4 (C04)",
        "group": "gnss",
        "lat": 3.05555209549428,
        "lon": 141.3810564195889,
        "alt_km": 35808.61444937131,
        "timestamp": "2025-12-20T16:47:36.528258+00:00",
        "meta_object_name": "BEIDOU-2 G4 (C04)",
        "meta_object_id": "2010-057A",
        "meta_epoch": "2025-12-20T13:35:05.702208",
        "meta_mean_motion": 1.00272021,
        "meta_eccentricity": 0.0010429,
        "meta_inclination": 3.2031,
        "meta_ra_of_asc_node": 69.9094,
        "meta_arg_of_pericenter": 192.8196,
        "meta_mean_anomaly": 190.5265,
        "meta_ephemeris_type": 0,
        "meta_classification_type": "U",
        "meta_norad_cat_id": 37210,
        "meta_element_set_no": 999,
        "meta_rev_at_epoch": 5550,
        "meta_bstar": 0,
        "meta_mean_motion_dot": -9e-07,
        "meta_mean_motion_ddot": 0,
        "tle_line1": "1 37210U 10057A   25354.56603822 -.00000090  00000+0  00000+0 0  9995",
        "tle_line2": "2 37210   3.2031  69.9094 0010429 192.8196 190.5265  1.00272021 55501"
      },
      "geometry": {
        "type": "Point",
        "coordinates": [
          141.3810564195889,
          3.05555209549428
        ]
      }
    },
    {
      "type": "Feature",
      "properties": {
        "norad_id": 37256,
        "name": "BEIDOU-2 IGSO-2 (C07)",
        "group": "gnss",
        "lat": 3.7695885339321777,
        "lon": 90.62746729697565,
        "alt_km": 35629.06661651666,
        "timestamp": "2025-12-20T16:47:36.528271+00:00",
        "meta_object_name": "BEIDOU-2 IGSO-2 (C07)",
        "meta_object_id": "2010-068A",
        "meta_epoch": "2025-12-20T13:52:30.782784",
        "meta_mean_motion": 1.00284035,
        "meta_eccentricity": 0.004842,
        "meta_inclination": 47.8716,
        "meta_ra_of_asc_node": 274.0527,
        "meta_arg_of_pericenter": 216.3627,
        "meta_mean_anomaly": 275.0459,
        "meta_ephemeris_type": 0,
        "meta_classification_type": "U",
        "meta_norad_cat_id": 37256,
        "meta_element_set_no": 999,
        "meta_rev_at_epoch": 5500,
        "meta_bstar": 0,
        "meta_mean_motion_dot": -1.89e-06,
        "meta_mean_motion_ddot": 0,
        "tle_line1": "1 37256U 10068A   25354.57813406 -.00000189  00000+0  00000+0 0  9998",
        "tle_line2": "2 37256  47.8716 274.0527 0048420 216.3627 275.0459  1.00284035 55005"
      },
      "geometry": {
        "type": "Point",
        "coordinates": [
          90.62746729697565,
          3.7695885339321777
        ]
      }
    },
    {
      "type": "Feature",
      "properties": {
        "norad_id": 37384,
        "name": "BEIDOU-2 IGSO-3 (C08)",
        "group": "gnss",
        "lat": 39.97737301649331,
        "lon": 68.16395296810967,
        "alt_km": 35898.83939883105,
        "timestamp": "2025-12-20T16:47:36.528283+00:00",
        "meta_object_name": "BEIDOU-2 IGSO-3 (C08)",
        "meta_object_id": "2011-013A",
        "meta_epoch": "2025-12-20T13:37:43.601664",
        "meta_mean_motion": 1.00268976,
        "meta_eccentricity": 0.0035383,
        "meta_inclination": 62.1535,
        "meta_ra_of_asc_node": 41.8418,
        "meta_arg_of_pericenter": 187.625,
        "meta_mean_anomaly": 171.7356,
        "meta_ephemeris_type": 0,
        "meta_classification_type": "U",
        "meta_norad_cat_id": 37384,
        "meta_element_set_no": 999,
        "meta_rev_at_epoch": 5386,
        "meta_bstar": 0,
        "meta_mean_motion_dot": -1.64e-06,
        "meta_mean_motion_ddot": 0,
        "tle_line1": "1 37384U 11013A   25354.56786576 -.00000164  00000+0  00000+0 0  9990",
        "tle_line2": "2 37384  62.1535  41.8418 0035383 187.6250 171.7356  1.00268976 53867"
      },
      "geometry": {
        "type": "Point",
        "coordinates": [
          68.16395296810967,
          39.97737301649331
        ]
      }
    },
    {
      "type": "Feature",
      "properties": {
        "norad_id": 37605,
        "name": "GSAT-8 (GAGAN/PRN 127)",
        "group": "gnss",
        "lat": -1.214840522706254,
        "lon": 36.59613527687621,
        "alt_km": 35808.9264367153,
        "timestamp": "2025-12-20T16:47:36.528295+00:00",
        "meta_object_name": "GSAT-8 (GAGAN/PRN 127)",
        "meta_object_id": "2011-022A",
        "meta_epoch": "2025-12-20T08:53:21.810048",
        "meta_mean_motion": 1.00270839,
        "meta_eccentricity": 0.0008842,
        "meta_inclination": 1.6683,
        "meta_ra_of_asc_node": 84.1172,
        "meta_arg_of_pericenter": 185.6408,
        "meta_mean_anomaly": 7.8666,
        "meta_ephemeris_type": 0,
        "meta_classification_type": "U",
        "meta_norad_cat_id": 37605,
        "meta_element_set_no": 999,
        "meta_rev_at_epoch": 5142,
        "meta_bstar": 0,
        "meta_mean_motion_dot": 1.07e-06,
        "meta_mean_motion_ddot": 0,
        "tle_line1": "1 37605U 11022A   25354.37039132  .00000107  00000+0  00000+0 0  9990",
        "tle_line2": "2 37605   1.6683  84.1172 0008842 185.6408   7.8666  1.00270839 51429"
      },
      "geometry": {
        "type": "Point",
        "coordinates": [
          36.59613527687621,
          -1.214840522706254
        ]
      }
    },
    {
      "type": "Feature",
      "properties": {
        "norad_id": 37763,
        "name": "BEIDOU-2 IGSO-4 (C09)",
        "group": "gnss",
        "lat": -54.52038967154622,
        "lon": 77.08437525432159,
        "alt_km": 35301.21411305624,
        "timestamp": "2025-12-20T16:47:36.528308+00:00",
        "meta_object_name": "BEIDOU-2 IGSO-4 (C09)",
        "meta_object_id": "2011-038A",
        "meta_epoch": "2025-12-17T23:29:21.564384",
        "meta_mean_motion": 1.00281312,
        "meta_eccentricity": 0.01493143,
        "meta_inclination": 54.5836,
        "meta_ra_of_asc_node": 167.2999,
        "meta_arg_of_pericenter": 230.2426,
        "meta_mean_anomaly": 136.1954,
        "meta_ephemeris_type": 0,
        "meta_classification_type": "U",
        "meta_norad_cat_id": 37763,
        "meta_element_set_no": 999,
        "meta_rev_at_epoch": 5283,
        "meta_bstar": 0,
        "meta_mean_motion_dot": 6.5e-07,
        "meta_mean_motion_ddot": 0,
        "tle_line1": "1 37763U 11038A   25351.97872181  .00000065  00000+0  00000+0 0  9997",
        "tle_line2": "2 37763  54.5836 167.2999 0149314 230.2426 136.1954  1.00281312 52838"
      },
      "geometry": {
        "type": "Point",
        "coordinates": [
          77.08437525432159,
          -54.52038967154622
        ]
      }
    }
  ]
}